[
    {
        "Altitude(m)": 617719.7724082558,
        "Argument of Periapsis(deg)": 0.0,
        "Eccentricity": 0.0,
        "Inclination(deg)": 60.0,
        "Latitude(deg)": -41.10264407207333,
        "Longitude(deg)": -149.90545189683453,
        "Mean Anomaly(deg)": 229.09090000000006,
        "RAAN(deg)": 100.0,
        "Satellite Name": "Test1 454",
        "Satellite Number": 454,
        "Semi-Major Axis(m)": 6980739.136638005,
        "Time(s)": 0
    },
    {
        "Altitude(m)": 617911.3086884099,
        "Argument of Periapsis(deg)": 0.00010418945913296404,
        "Eccentricity": 0.0,
        "Inclination(deg)": 60.0,
        "Latitude(deg)": -41.565837052287144,
        "Longitude(deg)": -149.4010469395651,
        "Mean Anomaly(deg)": 229.71100614546188,
        "RAAN(deg)": 99.99957995086025,
        "Satellite Name": "Test1 454",
        "Satellite Number": 454,
        "Semi-Major Axis(m)": 6980739.136638005,
        "Time(s)": 10
    }
]